OBJECT_NAME,OBJECT_ID,EPOCH,MEAN_MOTION,ECCENTRICITY,INCLINATION,RA_OF_ASC_NODE,ARG_OF_PERICENTER,MEAN_ANOMALY,EPHEMERIS_TYPE,CLASSIFICATION_TYPE,NORAD_CAT_ID,ELEMENT_SET_NO,REV_AT_EPOCH,BSTAR,MEAN_MOTION_DOT,MEAN_MOTION_DDOT
FENGYUN 2G,2014-090A,2021-10-01T20:48:10.203264,1.00273914,.0002451,1.2863,91.7264,264.0648,66.8047,0,U,40367,999,2475,0,-.305E-5,0
METEOSAT-11 (MSG-4),2015-034A,2021-10-01T18:54:28.592352,1.00262428,.0001451,0.3329,115.5715,10.8589,168.4248,0,U,40732,999,2278,0,-.3E-7,0
ELEKTRO-L 2,2015-074A,2021-10-02T04:09:42.808896,1.00271371,.0002893,2.3394,91.1701,98.4313,229.4689,0,U,41105,999,2127,0,-.116E-5,0
HIMAWARI-9,2016-064A,2021-10-01T21:18:01.836864,1.00272751,.0000366,0.0140,191.9418,353.0493,286.1134,0,U,41836,999,1806,0,-.277E-5,0
GOES 16,2016-071A,2021-10-01T13:22:39.410976,1.00271908,.0000971,0.1099,85.0916,151.4739,259.4282,0,U,41866,999,1787,0,-.251E-5,0
FENGYUN 4A,2016-077A,2021-10-02T05:22:24.837312,1.00272113,.0003842,0.2275,284.8430,112.6786,158.9857,0,U,41882,999,1774,0,-.333E-5,0
CYGFM05,2016-078A,2021-10-01T23:06:12.432960,15.15174615,.0016298,34.9577,9.9783,297.6439,62.2618,0,U,41884,999,26564,.6886E-4,.1293E-4,0
CYGFM04,2016-078B,2021-10-01T15:23:56.612544,15.15683426,.001466,34.9509,2.6179,308.5103,51.4293,0,U,41885,999,26552,.69941E-4,.1332E-4,0
CYGFM02,2016-078C,2021-10-01T15:14:34.637568,15.15683302,.001541,34.9601,4.7255,303.5611,56.3629,0,U,41886,999,26560,.70579E-4,.1345E-4,0
CYGFM01,2016-078D,2021-10-01T15:55:55.891776,15.14962564,.0016784,34.9546,13.7533,294.9496,64.9472,0,U,41887,999,26545,.69866E-4,.1305E-4,0
CYGFM08,2016-078E,2021-10-01T15:46:29.741952,15.15383918,.0015913,34.9515,7.5875,304.3331,55.5874,0,U,41888,999,26557,.70532E-4,.1333E-4,0
CYGFM06,2016-078F,2021-10-01T13:12:14.337216,15.15677033,.0014356,34.9596,3.9542,302.6655,57.2672,0,U,41889,999,26553,.70548E-4,.1344E-4,0
CYGFM07,2016-078G,2021-10-01T14:16:42.078144,15.15672239,.0014113,34.9533,2.5552,306.8663,53.0754,0,U,41890,999,26552,.68517E-4,.1304E-4,0
CYGFM03,2016-078H,2021-10-01T12:38:33.288288,15.15667814,.0013628,34.9567,3.3745,304.5662,55.3763,0,U,41891,999,26565,.68395E-4,.1301E-4,0
FENGYUN 3D,2017-072A,2021-10-02T02:54:14.626368,14.19778169,.0001809,98.7957,216.3253,126.9017,233.2331,0,U,43010,999,20112,.22317E-4,.3E-7,0
NOAA 20,2017-073A,2021-10-02T02:36:42.091200,14.19555389,.0001398,98.7261,212.1536,79.1581,280.9752,0,U,43013,999,20057,.25805E-4,.11E-6,0
GOES 17,2018-022A,2021-10-01T16:31:33.026016,1.00267918,.0000084,0.0583,294.7100,250.6869,295.9318,0,U,43226,999,1317,0,.95E-6,0
FENGYUN 2H,2018-050A,2021-10-01T19:30:42.749856,1.00276301,.0003796,0.4969,105.1783,41.0681,236.1076,0,U,43491,999,1219,0,-.129E-5,0
METOP-C,2018-087A,2021-10-02T02:45:42.741792,14.21480339,.0003932,98.7239,333.7415,75.3898,284.7715,0,U,43689,999,15060,.38064E-4,.39E-6,0
GEO-KOMPSAT-2A,2018-100A,2021-10-01T17:47:47.162976,1.00272736,.0001865,0.0362,311.6725,289.4157,164.8296,0,U,43823,999,1037,0,-.346E-5,0
METEOR-M2 2,2019-038A,2021-10-02T03:45:45.461952,14.23691528,.0001029,98.6822,233.5577,0.3356,359.7827,0,U,44387,999,11665,.95793E-5,-.22E-6,0
FENGYUN 3E,2021-062A,2021-10-02T02:09:46.373184,14.19812695,.0002629,98.7063,276.2020,47.0701,313.0693,0,U,49008,999,1265,.45819E-5,-.34E-6,0
