FENGYUN 2G              
1 40367U 14090A   21274.86678476 -.00000305  00000-0  00000-0 0  9991
2 40367   1.2863  91.7264 0002451 264.0648  66.8047  1.00273914 24759
METEOSAT-11 (MSG-4)     
1 40732U 15034A   21274.78783093 -.00000003  00000-0  00000-0 0  9994
2 40732   0.3329 115.5715 0001451  10.8589 168.4248  1.00262428 22789
ELEKTRO-L 2             
1 41105U 15074A   21275.17341214 -.00000116  00000-0  00000+0 0  9996
2 41105   2.3394  91.1701 0002893  98.4313 229.4689  1.00271371 21277
HIMAWARI-9              
1 41836U 16064A   21274.88752126 -.00000277  00000-0  00000+0 0  9990
2 41836   0.0140 191.9418 0000366 353.0493 286.1134  1.00272751 18069
GOES 16                 
1 41866U 16071A   21274.55740059 -.00000251  00000-0  00000-0 0  9990
2 41866   0.1099  85.0916 0000971 151.4739 259.4282  1.00271908 17875
FENGYUN 4A              
1 41882U 16077A   21275.22389858 -.00000333  00000-0  00000+0 0  9995
2 41882   0.2275 284.8430 0003842 112.6786 158.9857  1.00272113 17747
CYGFM05                 
1 41884U 16078A   21274.96264390  .00001293  00000-0  68860-4 0  9999
2 41884  34.9577   9.9783 0016298 297.6439  62.2618 15.15174615265648
CYGFM04                 
1 41885U 16078B   21274.64162746  .00001332  00000-0  69941-4 0  9992
2 41885  34.9509   2.6179 0014660 308.5103  51.4293 15.15683426265525
CYGFM02                 
1 41886U 16078C   21274.63512312  .00001345  00000-0  70579-4 0  9993
2 41886  34.9601   4.7255 0015410 303.5611  56.3629 15.15683302265609
CYGFM01                 
1 41887U 16078D   21274.66384134  .00001305  00000-0  69866-4 0  9999
2 41887  34.9546  13.7533 0016784 294.9496  64.9472 15.14962564265459
CYGFM08                 
1 41888U 16078E   21274.65728868  .00001333  00000-0  70532-4 0  9998
2 41888  34.9515   7.5875 0015913 304.3331  55.5874 15.15383918265579
CYGFM06                 
1 41889U 16078F   21274.55016594  .00001344  00000-0  70548-4 0  9993
2 41889  34.9596   3.9542 0014356 302.6655  57.2672 15.15677033265535
CYGFM07                 
1 41890U 16078G   21274.59493146  .00001304  00000-0  68517-4 0  9990
2 41890  34.9533   2.5552 0014113 306.8663  53.0754 15.15672239265527
CYGFM03                 
1 41891U 16078H   21274.52677417  .00001301  00000-0  68395-4 0  9990
2 41891  34.9567   3.3745 0013628 304.5662  55.3763 15.15667814265654
FENGYUN 3D              
1 43010U 17072A   21275.12100262  .00000003  00000-0  22317-4 0  9998
2 43010  98.7957 216.3253 0001809 126.9017 233.2331 14.19778169201127
NOAA 20                 
1 43013U 17073A   21275.10882050  .00000011  00000-0  25805-4 0  9996
2 43013  98.7261 212.1536 0001398  79.1581 280.9752 14.19555389200575
GOES 17                 
1 43226U 18022A   21274.68857669  .00000095  00000-0  00000-0 0  9995
2 43226   0.0583 294.7100 0000084 250.6869 295.9318  1.00267918 13179
FENGYUN 2H              
1 43491U 18050A   21274.81299479 -.00000129  00000-0  00000-0 0  9993
2 43491   0.4969 105.1783 0003796  41.0681 236.1076  1.00276301 12199
METOP-C                 
1 43689U 18087A   21275.11507803  .00000039  00000-0  38064-4 0  9993
2 43689  98.7239 333.7415 0003932  75.3898 284.7715 14.21480339150604
GEO-KOMPSAT-2A          
1 43823U 18100A   21274.74151809 -.00000346  00000-0  00000-0 0  9995
2 43823   0.0362 311.6725 0001865 289.4157 164.8296  1.00272736 10379
METEOR-M2 2             
1 44387U 19038A   21275.15677618 -.00000022  00000-0  95793-5 0  9998
2 44387  98.6822 233.5577 0001029   0.3356 359.7827 14.23691528116655
FENGYUN 3E              
1 49008U 21062A   21275.09012006 -.00000034  00000-0  45819-5 0  9997
2 49008  98.7063 276.2020 0002629  47.0701 313.0693 14.19812695 12658
